{
    "CCSDS_OMM_VERS": "3.0",
    "COMMENT": "GENERATED VIA SPACE-TRACK.ORG API",
    "CREATION_DATE": "2025-11-23T22:56:29",
    "ORIGINATOR": "18 SPCS",
    "OBJECT_NAME": "BEIDOU 9",
    "OBJECT_ID": "2011-038A",
    "CENTER_NAME": "EARTH",
    "REF_FRAME": "TEME",
    "TIME_SYSTEM": "UTC",
    "MEAN_ELEMENT_THEORY": "SGP4",
    "EPOCH": "2025-11-23T12:46:33.838176",
    "MEAN_MOTION": "1.00286143",
    "ECCENTRICITY": "0.01483450",
    "INCLINATION": "54.5714",
    "RA_OF_ASC_NODE": "167.5193",
    "ARG_OF_PERICENTER": "230.2107",
    "MEAN_ANOMALY": "310.3564",
    "EPHEMERIS_TYPE": "0",
    "CLASSIFICATION_TYPE": "U",
    "NORAD_CAT_ID": "37763",
    "ELEMENT_SET_NO": "999",
    "REV_AT_EPOCH": "5258",
    "BSTAR": "0.00000000000000",
    "MEAN_MOTION_DOT": "0.00000062",
    "MEAN_MOTION_DDOT": "0.0000000000000",
    "SEMIMAJOR_AXIS": "42160.707",
    "PERIOD": "1435.891",
    "APOAPSIS": "36408.005",
    "PERIAPSIS": "35157.139",
    "OBJECT_TYPE": "PAYLOAD",
    "RCS_SIZE": "LARGE",
    "COUNTRY_CODE": "PRC",
    "LAUNCH_DATE": "2011-07-26",
    "SITE": "XSC",
    "DECAY_DATE": null,
    "FILE": "4896280",
    "GP_ID": "303350448",
    "TLE_LINE0": "0 BEIDOU 9",
    "TLE_LINE1": "1 37763U 11038A   25327.53233609  .00000062  00000-0  00000+0 0  9996",
    "TLE_LINE2": "2 37763  54.5714 167.5193 0148345 230.2107 310.3564  1.00286143 52583"
}